STARLETTE               
1 07646U 75010A   18113.88170591 -.00000133  00000-0  71394-5 0  9996
2 07646  49.8254 332.0703 0205734 311.1390  47.1907 13.82304274182827
LAGEOS 1                
1 08820U 76039A   18114.22645458 -.00000003  00000-0  00000+0 0  9997
2 08820 109.8314 239.9194 0044534 219.2216 164.9431  6.38664757723503
AJISAI (EGS)            
1 16908U 86061A   18114.55754887 -.00000081  00000-0  11792-3 0  9992
2 16908  50.0091 297.1275 0011472 165.7307 239.3059 12.44487647110211
LAGEOS 2                
1 22195U 92070B   18113.72676395 -.00000009  00000-0  00000-0 0  9996
2 22195  52.6738 347.7786 0137623 326.2140 101.9339  6.47293694602941
STELLA                  
1 22824U 93061B   18114.17613529 -.00000020  00000-0  10352-4 0  9994
2 22824  98.8665  79.4412 0005707 215.7623 265.9625 14.27372825280370
LARES                   
1 38077U 12006A   18113.88885798 -.00000023  00000-0  95424-4 0  9993
2 38077  69.4931 336.0264 0010033 317.9703  42.0541 12.54930922283758
